{
    "links": {
        "self": "http://www.neowsapp.com/rest/v1/neo/3374671?api_key=iIulBulltgU6a56xZRHN4H3l9WmuAYTsLGpBGhQ2"
    },
    "id": "3374671",
    "neo_reference_id": "3374671",
    "name": "(2007 HY15)",
    "designation": "2007 HY15",
    "nasa_jpl_url": "http://ssd.jpl.nasa.gov/sbdb.cgi?sstr=3374671",
    "absolute_magnitude_h": 24.1,
    "estimated_diameter": {
        "kilometers": {
            "estimated_diameter_min": 0.040230458,
            "estimated_diameter_max": 0.0899580388
        },
        "meters": {
            "estimated_diameter_min": 40.2304579834,
            "estimated_diameter_max": 89.9580388169
        },
        "miles": {
            "estimated_diameter_min": 0.0249980399,
            "estimated_diameter_max": 0.0558973165
        },
        "feet": {
            "estimated_diameter_min": 131.9896957704,
            "estimated_diameter_max": 295.1379320721
        }
    },
    "is_potentially_hazardous_asteroid": false,
    "close_approach_data": [
        {
            "close_approach_date": "2007-04-21",
            "close_approach_date_full": "2007-Apr-21 02:36",
            "epoch_date_close_approach": 1177122960000,
            "relative_velocity": {
                "kilometers_per_second": "11.9447830994",
                "kilometers_per_hour": "43001.219157854",
                "miles_per_hour": "26719.2853150566"
            },
            "miss_distance": {
                "astronomical": "0.115549236",
                "lunar": "44.948652804",
                "kilometers": "17285919.58572732",
                "miles": "10740972.365064216"
            },
            "orbiting_body": "Earth"
        }
    ],
    "orbital_data": {
        "orbit_id": "6",
        "orbit_determination_date": "2017-04-06 09:06:29",
        "first_observation_date": "2007-04-23",
        "last_observation_date": "2007-04-24",
        "data_arc_in_days": 1,
        "observations_used": 11,
        "orbit_uncertainty": "9",
        "minimum_orbit_intersection": ".115401",
        "jupiter_tisserand_invariant": "4.614",
        "epoch_osculation": "2454214.5",
        "eccentricity": ".2111670577859579",
        "semi_major_axis": "1.417027716414931",
        "inclination": "22.52135870342959",
        "ascending_node_longitude": "208.867970165112",
        "orbital_period": "616.1209044334153",
        "perihelion_distance": "1.117798142738435",
        "perihelion_argument": "9.400318578874268",
        "aphelion_distance": "1.716257290091426",
        "perihelion_time": "2454220.356770929309",
        "mean_anomaly": "356.5778834651128",
        "mean_motion": ".5843009016729532",
        "equinox": "J2000",
        "orbit_class": {
            "orbit_class_type": "AMO",
            "orbit_class_description": "Near-Earth asteroid orbits similar to that of 1221 Amor",
            "orbit_class_range": "1.017 AU < q (perihelion) < 1.3 AU"
        }
    },
    "is_sentry_object": false
}